[Satellite]
VERSION=1.1
NAME=FO-98
NICKNAME=FO-98
TLE1=1 43933U 19003B   19311.72195738  .00000610  00000-0  29798-4 0  9998
TLE2=2 43933  97.2641   4.5810 0016518 309.6135 145.4837 15.21802821 44650
STATUS=0
